ONEWEB-0706             
1 61611U 24188T   25238.85403050 -.00000596  00000+0 -17439-2 0  9990
2 61611  87.8758  94.9741 0001246 103.9794 256.1472 13.10367244 44837
ONEWEB-0707             
1 61612U 24188U   25238.86064733 -.00000716  00000+0 -20874-2 0  9994
2 61612  87.8764  94.9389 0001190  99.2903 260.8359 13.10369929 44771
ONEWEB-0708             
1 61613U 24188V   25238.87893101 -.00000075  00000+0 -25112-3 0  9994
2 61613  87.8787  94.9724 0001578 110.0012 250.1285 13.10376943 44755
