<?xml version="1.0" encoding="UTF-8"?>
<ndm xmlns:xsi="http://www.w3.org/2001/XMLSchema-instance" xsi:noNamespaceSchemaLocation="https://sanaregistry.org/r/ndmxml_unqualified/ndmxml-2.0.0-master-2.0.xsd">
<omm id="CCSDS_OMM_VERS" version="2.0">
<header><CREATION_DATE/><ORIGINATOR/></header><body><segment><metadata><OBJECT_NAME>ONEWEB-0706</OBJECT_NAME><OBJECT_ID>2024-188T</OBJECT_ID><CENTER_NAME>EARTH</CENTER_NAME><REF_FRAME>TEME</REF_FRAME><TIME_SYSTEM>UTC</TIME_SYSTEM><MEAN_ELEMENT_THEORY>SGP4</MEAN_ELEMENT_THEORY></metadata><data><meanElements><EPOCH>2025-08-26T20:29:48.235200</EPOCH><MEAN_MOTION>13.10367244</MEAN_MOTION><ECCENTRICITY>.00012464</ECCENTRICITY><INCLINATION>87.8758</INCLINATION><RA_OF_ASC_NODE>94.9741</RA_OF_ASC_NODE><ARG_OF_PERICENTER>103.9794</ARG_OF_PERICENTER><MEAN_ANOMALY>256.1472</MEAN_ANOMALY></meanElements><tleParameters><EPHEMERIS_TYPE>0</EPHEMERIS_TYPE><CLASSIFICATION_TYPE>U</CLASSIFICATION_TYPE><NORAD_CAT_ID>61611</NORAD_CAT_ID><ELEMENT_SET_NO>999</ELEMENT_SET_NO><REV_AT_EPOCH>4483</REV_AT_EPOCH><BSTAR>-.17439055E-2</BSTAR><MEAN_MOTION_DOT>-.596E-5</MEAN_MOTION_DOT><MEAN_MOTION_DDOT>0</MEAN_MOTION_DDOT></tleParameters></data></segment></body></omm>
<omm id="CCSDS_OMM_VERS" version="2.0">
<header><CREATION_DATE/><ORIGINATOR/></header><body><segment><metadata><OBJECT_NAME>ONEWEB-0707</OBJECT_NAME><OBJECT_ID>2024-188U</OBJECT_ID><CENTER_NAME>EARTH</CENTER_NAME><REF_FRAME>TEME</REF_FRAME><TIME_SYSTEM>UTC</TIME_SYSTEM><MEAN_ELEMENT_THEORY>SGP4</MEAN_ELEMENT_THEORY></metadata><data><meanElements><EPOCH>2025-08-26T20:39:19.929312</EPOCH><MEAN_MOTION>13.10369929</MEAN_MOTION><ECCENTRICITY>.00011909</ECCENTRICITY><INCLINATION>87.8764</INCLINATION><RA_OF_ASC_NODE>94.9389</RA_OF_ASC_NODE><ARG_OF_PERICENTER>99.2903</ARG_OF_PERICENTER><MEAN_ANOMALY>260.8359</MEAN_ANOMALY></meanElements><tleParameters><EPHEMERIS_TYPE>0</EPHEMERIS_TYPE><CLASSIFICATION_TYPE>U</CLASSIFICATION_TYPE><NORAD_CAT_ID>61612</NORAD_CAT_ID><ELEMENT_SET_NO>999</ELEMENT_SET_NO><REV_AT_EPOCH>4477</REV_AT_EPOCH><BSTAR>-.20873907E-2</BSTAR><MEAN_MOTION_DOT>-.716E-5</MEAN_MOTION_DOT><MEAN_MOTION_DDOT>0</MEAN_MOTION_DDOT></tleParameters></data></segment></body></omm>
<omm id="CCSDS_OMM_VERS" version="2.0">
<header><CREATION_DATE/><ORIGINATOR/></header><body><segment><metadata><OBJECT_NAME>ONEWEB-0708</OBJECT_NAME><OBJECT_ID>2024-188V</OBJECT_ID><CENTER_NAME>EARTH</CENTER_NAME><REF_FRAME>TEME</REF_FRAME><TIME_SYSTEM>UTC</TIME_SYSTEM><MEAN_ELEMENT_THEORY>SGP4</MEAN_ELEMENT_THEORY></metadata><data><meanElements><EPOCH>2025-08-26T21:05:39.639264</EPOCH><MEAN_MOTION>13.10376943</MEAN_MOTION><ECCENTRICITY>.00015783</ECCENTRICITY><INCLINATION>87.8787</INCLINATION><RA_OF_ASC_NODE>94.9724</RA_OF_ASC_NODE><ARG_OF_PERICENTER>110.0012</ARG_OF_PERICENTER><MEAN_ANOMALY>250.1285</MEAN_ANOMALY></meanElements><tleParameters><EPHEMERIS_TYPE>0</EPHEMERIS_TYPE><CLASSIFICATION_TYPE>U</CLASSIFICATION_TYPE><NORAD_CAT_ID>61613</NORAD_CAT_ID><ELEMENT_SET_NO>999</ELEMENT_SET_NO><REV_AT_EPOCH>4475</REV_AT_EPOCH><BSTAR>-.2511174E-3</BSTAR><MEAN_MOTION_DOT>-.75E-6</MEAN_MOTION_DOT><MEAN_MOTION_DDOT>0</MEAN_MOTION_DDOT></tleParameters></data></segment></body></omm>
</ndm>
